[{"OBJECT_NAME":"BEIDOU-2 G5 (C05)","OBJECT_ID":"2012-008A","EPOCH":"2026-03-03T22:54:45.786240","MEAN_MOTION":1.00276204,"ECCENTRICITY":0.00141126,"INCLINATION":3.3114,"RA_OF_ASC_NODE":70.3138,"ARG_OF_PERICENTER":250.2593,"MEAN_ANOMALY":243.6089,"EPHEMERIS_TYPE":0,"CLASSIFICATION_TYPE":"U","NORAD_CAT_ID":38091,"ELEMENT_SET_NO":999,"REV_AT_EPOCH":5131,"BSTAR":0,"MEAN_MOTION_DOT":4.4e-7,"MEAN_MOTION_DDOT":0},{"OBJECT_NAME":"BEIDOU-2 M3 (C11)","OBJECT_ID":"2012-018A","EPOCH":"2026-03-03T09:47:37.724064","MEAN_MOTION":1.86229789,"ECCENTRICITY":0.00211714,"INCLINATION":55.8472,"RA_OF_ASC_NODE":308.442,"ARG_OF_PERICENTER":279.5872,"MEAN_ANOMALY":80.2341,"EPHEMERIS_TYPE":0,"CLASSIFICATION_TYPE":"U","NORAD_CAT_ID":38250,"ELEMENT_SET_NO":999,"REV_AT_EPOCH":9397,"BSTAR":0,"MEAN_MOTION_DOT":-6.0e-7,"MEAN_MOTION_DDOT":0},{"OBJECT_NAME":"BEIDOU-2 M4 (C12)","OBJECT_ID":"2012-018B","EPOCH":"2026-03-02T19:16:41.137824","MEAN_MOTION":1.8622951,"ECCENTRICITY":0.00128561,"INCLINATION":55.749,"RA_OF_ASC_NODE":307.6853,"ARG_OF_PERICENTER":286.3325,"MEAN_ANOMALY":73.5869,"EPHEMERIS_TYPE":0,"CLASSIFICATION_TYPE":"U","NORAD_CAT_ID":38251,"ELEMENT_SET_NO":999,"REV_AT_EPOCH":9396,"BSTAR":0,"MEAN_MOTION_DOT":-5.5e-7,"MEAN_MOTION_DDOT":0},{"OBJECT_NAME":"SES-5 (EGNOS/PRN 136)","OBJECT_ID":"2012-036A","EPOCH":"2026-03-03T21:59:38.703552","MEAN_MOTION":1.00271795,"ECCENTRICITY":0.00020339,"INCLINATION":0.0611,"RA_OF_ASC_NODE":310.1497,"ARG_OF_PERICENTER":28.1563,"MEAN_ANOMALY":158.2441,"EPHEMERIS_TYPE":0,"CLASSIFICATION_TYPE":"U","NORAD_CAT_ID":38652,"ELEMENT_SET_NO":999,"REV_AT_EPOCH":4340,"BSTAR":0,"MEAN_MOTION_DOT":2.0e-7,"MEAN_MOTION_DDOT":0},{"OBJECT_NAME":"BEIDOU-2 M6 (C14)","OBJECT_ID":"2012-050B","EPOCH":"2026-03-01T23:26:12.130656","MEAN_MOTION":1.86230866,"ECCENTRICITY":0.00139034,"INCLINATION":56.4507,"RA_OF_ASC_NODE":66.4378,"ARG_OF_PERICENTER":341.61,"MEAN_ANOMALY":18.3756,"EPHEMERIS_TYPE":0,"CLASSIFICATION_TYPE":"U","NORAD_CAT_ID":38775,"ELEMENT_SET_NO":999,"REV_AT_EPOCH":9131,"BSTAR":0,"MEAN_MOTION_DOT":-6.0e-8,"MEAN_MOTION_DDOT":0},{"OBJECT_NAME":"GSAT-10 (GAGAN/PRN 128)","OBJECT_ID":"2012-051B","EPOCH":"2026-03-03T10:56:38.679936","MEAN_MOTION":1.00273302,"ECCENTRICITY":0.0004157,"INCLINATION":0.0759,"RA_OF_ASC_NODE":263.9438,"ARG_OF_PERICENTER":175.5434,"MEAN_ANOMALY":328.8469,"EPHEMERIS_TYPE":0,"CLASSIFICATION_TYPE":"U","NORAD_CAT_ID":38779,"ELEMENT_SET_NO":999,"REV_AT_EPOCH":4903,"BSTAR":0,"MEAN_MOTION_DOT":-1.79e-6,"MEAN_MOTION_DDOT":0},{"OBJECT_NAME":"GPS BIIF-3  (PRN 24)","OBJECT_ID":"2012-053A","EPOCH":"2026-03-03T14:52:30.879840","MEAN_MOTION":2.0056579,"ECCENTRICITY":0.01769292,"INCLINATION":53.5658,"RA_OF_ASC_NODE":147.9256,"ARG_OF_PERICENTER":64.7741,"MEAN_ANOMALY":297.0883,"EPHEMERIS_TYPE":0,"CLASSIFICATION_TYPE":"U","NORAD_CAT_ID":38833,"ELEMENT_SET_NO":999,"REV_AT_EPOCH":9732,"BSTAR":0,"MEAN_MOTION_DOT":2.0e-8,"MEAN_MOTION_DDOT":0},{"OBJECT_NAME":"GSAT0103 (GALILEO-FM3)","OBJECT_ID":"2012-055A","EPOCH":"2026-03-02T03:07:45.751296","MEAN_MOTION":1.70473355,"ECCENTRICITY":0.0005349,"INCLINATION":55.7369,"RA_OF_ASC_NODE":104.4827,"ARG_OF_PERICENTER":284.8926,"MEAN_ANOMALY":75.134,"EPHEMERIS_TYPE":0,"CLASSIFICATION_TYPE":"U","NORAD_CAT_ID":38857,"ELEMENT_SET_NO":999,"REV_AT_EPOCH":8318,"BSTAR":0,"MEAN_MOTION_DOT":1.4e-7,"MEAN_MOTION_DDOT":0},{"OBJECT_NAME":"BEIDOU-2 G6 (C02)","OBJECT_ID":"2012-059A","EPOCH":"2026-03-04T02:27:16.483104","MEAN_MOTION":1.00269514,"ECCENTRICITY":0.0010672,"INCLINATION":4.1554,"RA_OF_ASC_NODE":74.65,"ARG_OF_PERICENTER":304.2337,"MEAN_ANOMALY":263.7683,"EPHEMERIS_TYPE":0,"CLASSIFICATION_TYPE":"U","NORAD_CAT_ID":38953,"ELEMENT_SET_NO":999,"REV_AT_EPOCH":4885,"BSTAR":0,"MEAN_MOTION_DOT":-1.85e-6,"MEAN_MOTION_DDOT":0},{"OBJECT_NAME":"LUCH 5B (SDCM/PRN 125)","OBJECT_ID":"2012-061A","EPOCH":"2026-03-03T21:39:13.674240","MEAN_MOTION":1.00271596,"ECCENTRICITY":0.00043919,"INCLINATION":10.2575,"RA_OF_ASC_NODE":50.9099,"ARG_OF_PERICENTER":223.3648,"MEAN_ANOMALY":195.8772,"EPHEMERIS_TYPE":0,"CLASSIFICATION_TYPE":"U","NORAD_CAT_ID":38977,"ELEMENT_SET_NO":999,"REV_AT_EPOCH":4855,"BSTAR":0,"MEAN_MOTION_DOT":-1.46e-6,"MEAN_MOTION_DDOT":0},{"OBJECT_NAME":"COSMOS 2485 (747)","OBJECT_ID":"2013-019A","EPOCH":"2026-03-03T19:06:17.610624","MEAN_MOTION":2.13102935,"ECCENTRICITY":0.00255066,"INCLINATION":65.3593,"RA_OF_ASC_NODE":77.1407,"ARG_OF_PERICENTER":236.8284,"MEAN_ANOMALY":122.973,"EPHEMERIS_TYPE":0,"CLASSIFICATION_TYPE":"U","NORAD_CAT_ID":39155,"ELEMENT_SET_NO":999,"REV_AT_EPOCH":10003,"BSTAR":0,"MEAN_MOTION_DOT":2.1e-7,"MEAN_MOTION_DDOT":0},{"OBJECT_NAME":"GPS BIIF-4  (PRN 27)","OBJECT_ID":"2013-023A","EPOCH":"2026-03-01T23:44:03.785280","MEAN_MOTION":2.00564153,"ECCENTRICITY":0.01415529,"INCLINATION":54.5878,"RA_OF_ASC_NODE":273.3391,"ARG_OF_PERICENTER":49.8819,"MEAN_ANOMALY":311.3944,"EPHEMERIS_TYPE":0,"CLASSIFICATION_TYPE":"U","NORAD_CAT_ID":39166,"ELEMENT_SET_NO":999,"REV_AT_EPOCH":9373,"BSTAR":0,"MEAN_MOTION_DOT":6.0e-8,"MEAN_MOTION_DDOT":0},{"OBJECT_NAME":"IRNSS-1A","OBJECT_ID":"2013-034A","EPOCH":"2026-03-03T14:19:51.811680","MEAN_MOTION":1.00269823,"ECCENTRICITY":0.0017825,"INCLINATION":35.4874,"RA_OF_ASC_NODE":65.3779,"ARG_OF_PERICENTER":190.7092,"MEAN_ANOMALY":175.2371,"EPHEMERIS_TYPE":0,"CLASSIFICATION_TYPE":"U","NORAD_CAT_ID":39199,"ELEMENT_SET_NO":999,"REV_AT_EPOCH":4631,"BSTAR":0,"MEAN_MOTION_DOT":8.1e-7,"MEAN_MOTION_DDOT":0},{"OBJECT_NAME":"GPS BIIF-5  (PRN 30)","OBJECT_ID":"2014-008A","EPOCH":"2026-03-02T11:39:40.334400","MEAN_MOTION":2.00552925,"ECCENTRICITY":0.00822262,"INCLINATION":53.6376,"RA_OF_ASC_NODE":153.6733,"ARG_OF_PERICENTER":228.2234,"MEAN_ANOMALY":131.0919,"EPHEMERIS_TYPE":0,"CLASSIFICATION_TYPE":"U","NORAD_CAT_ID":39533,"ELEMENT_SET_NO":999,"REV_AT_EPOCH":8754,"BSTAR":0,"MEAN_MOTION_DOT":-1.3e-7,"MEAN_MOTION_DDOT":0},{"OBJECT_NAME":"ASTRA 5B (EGNOS/PRN 123)","OBJECT_ID":"2014-011B","EPOCH":"2026-03-03T21:02:03.552864","MEAN_MOTION":1.00270646,"ECCENTRICITY":0.00041717,"INCLINATION":0.0921,"RA_OF_ASC_NODE":298.3468,"ARG_OF_PERICENTER":26.4522,"MEAN_ANOMALY":175.8209,"EPHEMERIS_TYPE":0,"CLASSIFICATION_TYPE":"U","NORAD_CAT_ID":39617,"ELEMENT_SET_NO":999,"REV_AT_EPOCH":4361,"BSTAR":0,"MEAN_MOTION_DOT":1.23e-6,"MEAN_MOTION_DDOT":0},{"OBJECT_NAME":"COSMOS 2492 (754)","OBJECT_ID":"2014-012A","EPOCH":"2026-03-01T21:04:05.429568","MEAN_MOTION":2.13103112,"ECCENTRICITY":0.0013264,"INCLINATION":65.3591,"RA_OF_ASC_NODE":317.5854,"ARG_OF_PERICENTER":325.8526,"MEAN_ANOMALY":34.1188,"EPHEMERIS_TYPE":0,"CLASSIFICATION_TYPE":"U","NORAD_CAT_ID":39620,"ELEMENT_SET_NO":999,"REV_AT_EPOCH":9295,"BSTAR":0,"MEAN_MOTION_DOT":-4.6e-7,"MEAN_MOTION_DDOT":0},{"OBJECT_NAME":"IRNSS-1B","OBJECT_ID":"2014-017A","EPOCH":"2026-03-03T13:10:18.111936","MEAN_MOTION":1.0027089,"ECCENTRICITY":0.0021171,"INCLINATION":29.1127,"RA_OF_ASC_NODE":242.2056,"ARG_OF_PERICENTER":179.2461,"MEAN_ANOMALY":352.3815,"EPHEMERIS_TYPE":0,"CLASSIFICATION_TYPE":"U","NORAD_CAT_ID":39635,"ELEMENT_SET_NO":999,"REV_AT_EPOCH":4373,"BSTAR":0,"MEAN_MOTION_DOT":1.02e-6,"MEAN_MOTION_DDOT":0}]
